NORAD_CAT_ID,OBJECT_NAME,OBJECT_TYPE,EPOCH,MEAN_MOTION,ECCENTRICITY,INCLINATION,RA_OF_ASC_NODE,ARG_OF_PERICENTER,MEAN_ANOMALY,BSTAR,MEAN_MOTION_DOT,MEAN_MOTION_DDOT,TLE_LINE0,TLE_LINE1,TLE_LINE2,SEMIMAJOR_AXIS,PERIOD,APOGEE,PERIGEE,DECAYED
53543.0,STARLINK-4297,PAYLOAD,2023-02-12 17:30:56,15.08842469,0.0001252,53.2152,56.3734,115.6019,244.5102,-5.834e-05,-1.216e-05,0.0,0 STARLINK-4297,1 53543U 22101S   23043.72982206 -.00001216  00000-0 -58340-4 0  9990,2 53543  53.2152  56.3734 0001252 115.6019 244.5102 15.08842469 27072,6917.873,95.437,540.604,538.872,0.0
53543.0,STARLINK-4297,PAYLOAD,2023-02-13 01:27:53,15.08830992,0.0001292,53.217,54.8831,93.7478,266.3662,-9.4905e-05,-1.798e-05,0.0,0 STARLINK-4297,1 53543U 22101S   23044.06103447 -.00001798  00000-0 -94905-4 0  9992,2 53543  53.2170  54.8831 0001292  93.7478 266.3662 15.08830992 27129,6917.908,95.438,540.667,538.879,0.0
53543.0,STARLINK-4297,PAYLOAD,2023-02-13 09:24:48,15.08843944,0.0001305,53.2177,53.3941,84.1308,275.9833,-1.1602e-06,-3.06e-06,0.0,0 STARLINK-4297,1 53543U 22101S   23044.39222348 -.00000306  00000-0 -11602-5 0  9998,2 53543  53.2177  53.3941 0001305  84.1308 275.9833 15.08843944 27175,6917.868,95.437,540.636,538.831,0.0
53543.0,STARLINK-4297,PAYLOAD,2023-02-14 01:18:40,15.08823272,0.000117,53.2185,50.4216,88.7455,271.3671,6.8772e-05,8.06e-06,0.0,0 STARLINK-4297,1 53543U 22101S   23045.05463557  .00000806  00000-0  68772-4 0  9993,2 53543  53.2185  50.4216 0001170  88.7455 271.3671 15.08823272 27273,6917.932,95.439,540.606,538.987,0.0
53543.0,STARLINK-4297,PAYLOAD,2023-02-14 17:12:31,15.08840555,0.0001588,53.2175,47.4478,74.9131,285.2037,3.5973e-05,2.85e-06,0.0,0 STARLINK-4297,1 53543U 22101S   23045.71702866  .00000285  00000-0  35973-4 0  9993,2 53543  53.2175  47.4478 0001588  74.9131 285.2037 15.08840555 27373,6917.879,95.438,540.842,538.645,0.0
53543.0,STARLINK-4297,PAYLOAD,2023-02-14 23:34:04,15.08825389,0.000128,53.217,46.2554,72.3649,287.7483,5.2124e-05,5.41e-06,0.0,0 STARLINK-4297,1 53543U 22101S   23045.98199691  .00000541  00000-0  52124-4 0  9990,2 53543  53.2170  46.2554 0001280  72.3649 287.7483 15.08825389 27410,6917.925,95.438,540.676,538.905,0.0
53543.0,STARLINK-4297,PAYLOAD,2023-02-15 07:30:59,15.0884647,0.0001258,53.2184,44.7713,78.1864,281.927,4.0294e-05,3.54e-06,0.0,0 STARLINK-4297,1 53543U 22101S   23046.31318446  .00000354  00000-0  40294-4 0  9996,2 53543  53.2184  44.7713 0001258  78.1864 281.9270 15.08846470 27462,6917.861,95.437,540.596,538.855,0.0
53543.0,STARLINK-4297,PAYLOAD,2023-02-15 17:03:17,15.08847014,0.0001366,53.2195,42.9876,83.2641,276.8507,7.748e-06,-1.65e-06,0.0,0 STARLINK-4297,1 53543U 22101S   23046.71062442 -.00000165  00000-0  77480-5 0  9991,2 53543  53.2195  42.9876 0001366  83.2641 276.8507 15.08847014 28219,6917.859,95.437,540.669,538.779,0.0
53543.0,STARLINK-4297,PAYLOAD,2023-02-16 05:46:21,15.08861583,9.4e-05,53.2182,40.6068,89.7645,270.3455,0.00010659,1.41e-05,0.0,0 STARLINK-4297,1 53543U 22101S   23047.24052868  .00001410  00000-0  10659-3 0  9997,2 53543  53.2182  40.6068 0000940  89.7645 270.3455 15.08861583 27605,6917.814,95.436,540.33,539.029,0.0
53543.0,STARLINK-4297,PAYLOAD,2023-02-16 16:54:03,15.08855854,0.000117,53.2179,38.5267,87.83,272.2826,0.00019102,2.755e-05,0.0,0 STARLINK-4297,1 53543U 22101S   23047.70420266  .00002755  00000-0  19102-3 0  9994,2 53543  53.2179  38.5267 0001170  87.8300 272.2826 15.08855854 28362,6917.832,95.437,540.506,538.888,0.0
53543.0,STARLINK-4297,PAYLOAD,2023-02-17 05:37:11,15.08829091,0.0001147,53.2183,36.1491,68.494,291.6174,-0.00011035,-2.043e-05,0.0,0 STARLINK-4297,1 53543U 22101S   23048.23415932 -.00002043  00000-0 -11035-3 0  9996,2 53543  53.2183  36.1491 0001147  68.4940 291.6174 15.08829091 27756,6917.914,95.438,540.572,538.985,0.0
53543.0,STARLINK-4297,PAYLOAD,2023-02-18 08:38:44,15.08840497,7.99e-05,53.2182,31.091,91.0913,269.0171,-0.00011101,-2.054e-05,0.0,0 STARLINK-4297,1 53543U 22101S   23049.36023611 -.00002054  00000-0 -11101-3 0  9996,2 53543  53.2182  31.0910 0000799  91.0913 269.0171 15.08840497 27927,6917.879,95.438,540.297,539.191,0.0
53543.0,STARLINK-4297,PAYLOAD,2023-02-19 06:54:07,15.08843579,7.74e-05,53.2194,26.9289,75.9801,284.1277,0.00018729,2.695e-05,0.0,0 STARLINK-4297,1 53543U 22101S   23050.28758440  .00002695  00000-0  18729-3 0  9996,2 53543  53.2194  26.9289 0000774  75.9801 284.1277 15.08843579 28067,6917.869,95.437,540.27,539.199,0.0
53543.0,STARLINK-4297,PAYLOAD,2023-02-20 05:09:32,15.08836344,8.54e-05,53.2187,22.7687,89.0694,271.0396,-1.7806e-05,-5.71e-06,0.0,0 STARLINK-4297,1 53543U 22101S   23051.21496137 -.00000571  00000-0 -17806-4 0  9991,2 53543  53.2187  22.7687 0000854  89.0694 271.0396 15.08836344 28205,6917.892,95.438,540.347,539.166,0.0
53543.0,STARLINK-4297,PAYLOAD,2023-02-20 06:44:55,15.08837752,8.86e-05,53.2207,22.4711,81.0235,279.0857,3.6507e-06,-2.3e-06,0.0,0 STARLINK-4297,1 53543U 22101S   23051.28119678 -.00000230  00000-0  36507-5 0  9991,2 53543  53.2207  22.4711 0000886  81.0235 279.0857 15.08837752 28902,6917.887,95.438,540.365,539.139,0.0
53543.0,STARLINK-4297,PAYLOAD,2023-02-21 03:24:56,15.08841785,0.0001121,53.2193,18.6025,78.2391,281.8727,-6.7714e-05,-1.365e-05,0.0,0 STARLINK-4297,1 53543U 22101S   23052.14231633 -.00001365  00000-0 -67714-4 0  9997,2 53543  53.2193  18.6025 0001121  78.2391 281.8727 15.08841785 28341,6917.875,95.437,540.515,538.964,0.0
53543.0,STARLINK-4297,PAYLOAD,2023-02-21 08:11:04,15.0885187,0.0001022,53.2197,17.7108,98.2176,261.8932,1.6475e-05,-2.5e-07,0.0,0 STARLINK-4297,1 53543U 22101S   23052.34102549 -.00000025  00000-0  16475-4 0  9991,2 53543  53.2197  17.7108 0001022  98.2176 261.8932 15.08851870 28375,6917.844,95.437,540.416,539.002,0.0
53543.0,STARLINK-4297,PAYLOAD,2023-02-21 14:32:37,15.08844083,0.0001343,53.2205,16.5211,78.9404,281.1739,-4.1405e-05,-9.47e-06,0.0,0 STARLINK-4297,1 53543U 22101S   23052.60599296 -.00000947  00000-0 -41405-4 0  9994,2 53543  53.2205  16.5211 0001343  78.9404 281.1739 15.08844083 29102,6917.868,95.437,540.662,538.804,0.0
53543.0,STARLINK-4297,PAYLOAD,2023-02-21 20:54:10,15.0883444,0.0001463,53.2191,15.333,79.3716,280.744,6.7436e-05,7.85e-06,0.0,0 STARLINK-4297,1 53543U 22101S   23052.87095527  .00000785  00000-0  67436-4 0  9991,2 53543  53.2191  15.3330 0001463  79.3716 280.7440 15.08834440 29143,6917.897,95.438,540.774,538.75,0.0
53543.0,STARLINK-4297,PAYLOAD,2023-02-22 06:26:28,15.08844002,0.0001081,53.2184,13.5484,81.0242,279.0872,2.3553e-05,8.7e-07,0.0,0 STARLINK-4297,1 53543U 22101S   23053.26839119  .00000087  00000-0  23553-4 0  9995,2 53543  53.2184  13.5484 0001081  81.0242 279.0872 15.08844002 29207,6917.868,95.437,540.481,538.985,0.0
53543.0,STARLINK-4297,PAYLOAD,2023-02-23 03:06:30,15.08830482,0.0001191,53.2195,9.6834,86.8823,273.2305,-3.2596e-05,-8.06e-06,0.0,0 STARLINK-4297,1 53543U 22101S   23054.12952539 -.00000806  00000-0 -32596-4 0  9991,2 53543  53.2195   9.6834 0001191  86.8823 273.2305 15.08830482 28645,6917.909,95.438,540.598,538.951,0.0
53543.0,STARLINK-4297,PAYLOAD,2023-02-23 06:17:16,15.08841532,0.0001264,53.2182,9.0874,100.3978,259.7157,-6.0937e-05,-1.258e-05,0.0,0 STARLINK-4297,1 53543U 22101S   23054.26199933 -.00001258  00000-0 -60937-4 0  9999,2 53543  53.2182   9.0874 0001264 100.3978 259.7157 15.08841532 28667,6917.876,95.437,540.615,538.866,0.0
53543.0,STARLINK-4297,PAYLOAD,2023-02-24 06:08:01,15.08861519,0.0001303,53.22,4.626,82.9238,277.1902,0.00012926,1.771e-05,0.0,0 STARLINK-4297,1 53543U 22101S   23055.25557829  .00001771  00000-0  12926-3 0  9993,2 53543  53.2200   4.6260 0001303  82.9238 277.1902 15.08861519 28812,6917.815,95.436,540.581,538.778,0.0
53543.0,STARLINK-4297,PAYLOAD,2023-02-24 20:26:32,15.08836146,0.0001291,53.2203,1.9513,84.4592,275.6547,-7.4927e-05,-1.48e-05,0.0,0 STARLINK-4297,1 53543U 22101S   23055.85176285 -.00001480  00000-0 -74927-4 0  9991,2 53543  53.2203   1.9513 0001291  84.4592 275.6547 15.08836146 28908,6917.892,95.438,540.65,538.864,0.0
53543.0,STARLINK-4297,PAYLOAD,2023-02-25 05:58:50,15.08840019,0.0001295,53.2198,0.1667,91.3153,268.7988,-3.2471e-05,-8.05e-06,0.0,0 STARLINK-4297,1 53543U 22101S   23056.24919845 -.00000805  00000-0 -32471-4 0  9990,2 53543  53.2198   0.1667 0001295  91.3153 268.7988 15.08840019 29655,6917.88,95.438,540.641,538.849,0.0
53543.0,STARLINK-4297,PAYLOAD,2023-02-26 05:49:37,15.08854983,0.0001218,53.2187,355.7063,88.8513,271.2619,-7.9476e-05,-1.553e-05,0.0,0 STARLINK-4297,1 53543U 22101S   23057.24279013 -.00001553  00000-0 -79476-4 0  9994,2 53543  53.2187 355.7063 0001218  88.8513 271.2619 15.08854983 29114,6917.835,95.437,540.542,538.857,0.0
53543.0,STARLINK-4297,PAYLOAD,2023-02-26 20:08:05,15.08839649,0.0001206,53.2193,353.0299,90.4744,269.6386,4.6316e-05,4.49e-06,0.0,0 STARLINK-4297,1 53543U 22101S   23057.83895466  .00000449  00000-0  46316-4 0  9993,2 53543  53.2193 353.0299 0001206  90.4744 269.6386 15.08839649 29209,6917.881,95.438,540.581,538.912,0.0
53543.0,STARLINK-4297,PAYLOAD,2023-02-27 04:04:59,15.08858075,0.0001182,53.2198,351.5435,79.4325,280.68,0.00018774,2.703e-05,0.0,0 STARLINK-4297,1 53543U 22101S   23058.17013616  .00002703  00000-0  18774-3 0  9991,2 53543  53.2198 351.5435 0001182  79.4325 280.6800 15.08858075 29257,6917.825,95.436,540.508,538.872,0.0
53543.0,STARLINK-4297,PAYLOAD,2023-02-27 18:23:30,15.08827423,0.0001283,53.22,348.8699,84.3598,275.7541,-3.1464e-05,-7.88e-06,0.0,0 STARLINK-4297,1 53543U 22101S   23058.76632484 -.00000788  00000-0 -31464-4 0  9991,2 53543  53.2200 348.8699 0001283  84.3598 275.7541 15.08827423 29341,6917.919,95.438,540.671,538.896,0.0
53543.0,STARLINK-4297,PAYLOAD,2023-02-27 19:58:53,15.08832958,0.0001114,53.2184,348.5708,93.1438,266.9682,-0.00013781,-2.48e-05,0.0,0 STARLINK-4297,1 53543U 22101S   23058.83256668 -.00002480  00000-0 -13781-3 0  9997,2 53543  53.2184 348.5708 0001114  93.1438 266.9682 15.08832958 30040,6917.902,95.438,540.538,538.996,0.0
